SL-16 R/B               
1 25400U 98043G   26046.77042615  .00000065  00000+0  46080-4 0  9997
2 25400  98.8217 359.9836 0010962  79.0085 281.2327 14.26044477435868
SL-16 R/B               
1 25407U 98045B   26046.74755848  .00000315  00000+0  18302-3 0  9995
2 25407  71.0088 227.7165 0005678  47.9240 312.2365 14.16188415423994
ISS (ZARYA)             
1 25544U 98067A   26046.56961129  .00012237  00000+0  23255-3 0  9991
2 25544  51.6318 181.6981 0010993 101.7612 258.4610 15.48625638552905
CZ-4B R/B               
1 25732U 99025C   26046.73415721  .00000064  00000+0  51524-4 0  9992
2 25732  98.6671  91.5310 0037890  49.3783  59.2279 14.18260846385053
OKEAN-O                 
1 25860U 99039A   26046.75143423  .00000740  00000+0  10399-3 0  9993
2 25860  97.9492 106.8606 0001831  81.6992 278.4428 14.80298888431142
SL-16 R/B               
1 25861U 99039B   26046.75202010  .00000639  00000+0  87921-4 0  9995
2 25861  98.0014 105.8758 0014093 333.5612  26.4880 14.81700076433619
DELTA 2 R/B             
1 25876U 99041E   26046.35418738  .00002451  00000+0  43154-3 0  9999
2 25876  51.7656  30.4765 0502252 282.4581  72.0611 14.11753165359874
HELIOS 1B               
1 25977U 99064A   26046.71946230  .00001885  00000+0  21388-3 0  9994
2 25977  98.1722 308.3148 0002282 103.9950 256.1520 14.87604952681999
TERRA                   
1 25994U 99068A   26046.79974251  .00000496  00000+0  11016-3 0  9993
2 25994  97.9641 101.0655 0001157 223.0110 200.0981 14.60990591391881
SL-16 R/B               
1 26070U 00006B   26046.68658933 -.00000197  00000+0 -75808-4 0  9997
2 26070  71.0026 144.1020 0018064 221.2250 138.7510 14.15818879345445
TITAN 4B R/B            
1 26474U 00047B   26046.76355771  .00003654  00000+0  23301-3 0  9992
2 26474  67.9890 102.1582 0037104  62.1725 298.3176 15.09370001389609
ENVISAT                 
1 27386U 02009A   26046.83992300  .00000130  00000+0  56027-4 0  9996
2 27386  98.3692   0.9627 0001350  86.9113 288.8473 14.39028606256031
